[{"OBJECT_NAME":"STARLINK-1273","OBJECT_ID":"2020-019H","EPOCH":"2026-03-09T12:49:52.137408","MEAN_MOTION":15.44237041,"ECCENTRICITY":0.00021479,"INCLINATION":53.0509,"RA_OF_ASC_NODE":155.5528,"ARG_OF_PERICENTER":0.3875,"MEAN_ANOMALY":359.7131,"EPHEMERIS_TYPE":0,"CLASSIFICATION_TYPE":"U","NORAD_CAT_ID":45367,"ELEMENT_SET_NO":999,"REV_AT_EPOCH":32987,"BSTAR":0.0015436718,"MEAN_MOTION_DOT":0.00072311,"MEAN_MOTION_DDOT":0},{"OBJECT_NAME":"GHGSAT-C7","OBJECT_ID":"2023-054AH","EPOCH":"2026-03-09T23:00:36.628128","MEAN_MOTION":15.47649027,"ECCENTRICITY":0.00094471,"INCLINATION":97.3074,"RA_OF_ASC_NODE":336.1963,"ARG_OF_PERICENTER":47.2548,"MEAN_ANOMALY":312.9496,"EPHEMERIS_TYPE":0,"CLASSIFICATION_TYPE":"U","NORAD_CAT_ID":56209,"ELEMENT_SET_NO":999,"REV_AT_EPOCH":16303,"BSTAR":0.00028683651,"MEAN_MOTION_DOT":0.00014749,"MEAN_MOTION_DDOT":0}]
